#aV2011  7 28  0  0   .00000000      96 DD+AD WGS84 FIT  NGA
## 1646 345600.00000000   900.00000000 55770  .0000000000000
+   32     1  2  3  4  5  6  7  8  9 10 11 12 13 14 15 16 17
+         18 19 20 21 22 23 24 25 26 27 28 29 30 31 32  0  0
+          0  0  0  0  0  0  0  0  0  0  0  0  0  0  0  0  0
+          0  0  0  0  0  0  0  0  0  0  0  0  0  0  0  0  0
+          0  0  0  0  0  0  0  0  0  0  0  0  0  0  0  0  0
++         0  0  0  0  0  0  0  0  0  0  0  0  0  0  0  0  0
++         0  0  0  0  0  0  0  0  0  0  0  0  0  0  0  0  0
++         0  0  0  0  0  0  0  0  0  0  0  0  0  0  0  0  0
++         0  0  0  0  0  0  0  0  0  0  0  0  0  0  0  0  0
++         0  0  0  0  0  0  0  0  0  0  0  0  0  0  0  0  0
%c cc cc ccc ccc cccc cccc cccc cccc ccccc ccccc ccccc ccccc
%c cc cc ccc ccc cccc cccc cccc cccc ccccc ccccc ccccc ccccc
%f  0.0000000  0.000000000  0.00000000000  0.000000000000000
%f  0.0000000  0.000000000  0.00000000000  0.000000000000000
%i    0    0    0    0      0      0      0      0         0
%i    0    0    0    0      0      0      0      0         0
/*      NGA, ST. LOUIS,MO.                                  
/*   EPHEMERIS COMPUTED FROM  3 DAYS OF DATA                
/* CCCCCCCCCCCCCCCCCCCCCCCCCCCCCCCCCCCCCCCCCCCCCCCCCCCCCCCCC
/* CCCCCCCCCCCCCCCCCCCCCCCCCCCCCCCCCCCCCCCCCCCCCCCCCCCCCCCCC
*  2011  7 28 10 30   .00000000                                                 
P  1  15616.126087   4224.871021 -21417.848168     -9.115145                    
V  1   2633.646719  26475.381868   7134.643370       .012376                    
P  2  13987.751353  15989.632284 -16173.337236    348.704984                    
V  2    594.947068  20615.059008  20324.101746       .017560                    
P  3 -23778.192165 -11152.518119  -5385.683154    747.538984                    
V  3   6966.074912  -1457.689585 -29858.898497       .049154                    
P  4   6492.846892  25104.679530  -5041.449720    185.004224                    
V  4  -3011.000085   6592.146117  30568.933759       .109145                    
P  5  17132.703723   4800.391283 -19765.143624   -195.743162                    
V  5 -19458.874631  15841.055624 -12920.591656      -.054690                    
P  6 -20987.380578 -14254.220331  -8120.075642   -111.410133                    
V  6  10916.658562    734.980367 -28733.337034      -.859641                    
P  7  -6684.039348  22016.587635 -13059.899711     19.667883                    
V  7  -3735.365551 -16360.396810 -25882.894958       .015413                    
P  8  -2123.635845  25818.109544  -4226.324917      8.630085                    
V  8  -2249.619506  -5420.303063 -32306.601192       .001141                    
P  9  13948.742638  -4359.211373  21625.468837     95.572758                    
V  9   3911.653580  28474.272577   3121.903904       .024410                    
P 10   1645.867203  16880.817886 -20568.922536     -8.178287                    
V 10 -21756.165946  13858.009244  10108.789128      -.011473                    
P 11 -16790.305916   2080.742150  20177.466054   -171.938516                    
V 11  -8989.102287 -25124.570532  -4463.353064      -.033550                    
P 12  23193.717441 -10867.459363   6685.586955     12.097835                    
V 12  -5572.952731   6842.917227  30675.946903       .025106                    
P 13 -12731.047092   9219.051492 -21562.821402    259.060152                    
V 13 -23497.744986 -13212.632129   8206.476190      -.017645                    
P 14  -7279.719093 -17687.801450  18658.376104    164.015816                    
V 14  21170.006004   9645.830496  17413.867848       .020365                    
P 15  24652.113345   2691.374243   9746.691010   -113.594616                    
V 15  10348.814378   7231.878694 -28025.635798       .019343                    
P 16 -17363.191748  -4287.877989 -19725.327949   -188.228858                    
V 16  20115.608044 -14755.790372 -14193.149617      -.023718                    
P 17   8435.482707  17892.802429  17973.734848    181.059915                    
V 17 -20883.848378  -8363.206787  18048.341200      -.011537                    
P 18  13439.324987 -19872.205277  11307.043841    149.440903                    
V 18  13405.166262  -5419.853397 -26604.634672       .018982                    
P 19 -24583.416223  -7339.501678   7552.144319   -166.838417                    
V 19  -7214.615536  -6653.673849 -29538.752035      -.040877                    
P 20 -22340.522285  13530.688386   4494.687702     51.130211                    
V 20   2320.201488  -6583.207833  30449.619973       .003535                    
P 21   4959.749071 -23651.274953  -9870.652189   -160.863058                    
V 21   5238.384077  12941.625545 -27812.840370      -.025678                    
P 22   1299.626840 -18450.148647  19202.252056    145.900574                    
V 22  20705.719119 -12552.636423 -13702.999756      -.001926                    
P 23 -21143.035744   2668.244357 -16067.450897    288.483595                    
V 23 -17797.996382  -9836.628225  21417.331846      -.029152                    
P 24 -14566.099309   7655.094529  20843.752869    410.484322                    
V 24  -2455.349998 -26363.799789   8282.489671       .033630                    
P 25  18799.381028 -18174.371074  -4600.298411     11.234940                    
V 25   6238.543152  -1377.566271  31144.991346       .018394                    
P 26  23212.152059  13330.253591  -1213.577929   -105.163968                    
V 26  -1474.518606   1069.133794 -32021.223656      -.121529                    
P 27  15411.821246   2533.149805  22177.343942    289.091372                    
V 27   3926.047550  26217.811886  -5553.663252       .037763                    
P 28  -5414.949872  18699.831880  18471.771741     55.208354                    
V 28 -19384.772724  11414.485102 -17990.650364       .027979                    
P 29  13436.496966  -9538.814737 -20750.097995    226.796948                    
V 29  23470.010303  12370.622730   9522.643995       .030811                    
P 30  -8875.828079 -12609.685548 -22045.884266     29.576473                    
V 30  21122.151363 -16806.527829   1146.363968       .056051                    
P 31  -7452.669473 -24187.249029  -7489.237500    117.774223                    
V 31   1309.808821  -9992.468316  30376.200173       .057748                    
P 32 -23391.818000   4712.076516  11472.161602   -299.987983                    
V 32  10770.759477  -9853.246975  27060.959275      -.071113                    
EOF
